{
  "type": "FeatureCollection",
  "features": [
    {
      "type": "Feature",
      "properties": {
        "norad_id": 66566,
        "name": "STARLINK-35871",
        "group": "last-30-days",
        "lat": -5.376516209992329,
        "lon": -38.43012190787643,
        "alt_km": 415.5471233697908,
        "timestamp": "2025-12-10T05:46:12.575638+00:00",
        "meta_object_name": "STARLINK-35871",
        "meta_object_id": "2025-268K",
        "meta_epoch": "2025-12-09T20:00:01.999008",
        "meta_mean_motion": 15.50583204,
        "meta_eccentricity": 0.0001883,
        "meta_inclination": 43.0004,
        "meta_ra_of_asc_node": 138.1549,
        "meta_arg_of_pericenter": 275.7019,
        "meta_mean_anomaly": 157.1393,
        "meta_ephemeris_type": 0,
        "meta_classification_type": "U",
        "meta_norad_cat_id": 66566,
        "meta_element_set_no": 999,
        "meta_rev_at_epoch": 420,
        "meta_bstar": -0.00048112,
        "meta_mean_motion_dot": -0.00028469,
        "meta_mean_motion_ddot": 0,
        "tle_line1": "1 66566U 25268K   25343.83335647 -.00028469  00000+0 -48112-3 0  9997",
        "tle_line2": "2 66566  43.0004 138.1549 0001883 275.7019 157.1393 15.50583204  4202"
      },
      "geometry": {
        "type": "Point",
        "coordinates": [
          -38.43012190787643,
          -5.376516209992329
        ]
      }
    },
    {
      "type": "Feature",
      "properties": {
        "norad_id": 66567,
        "name": "STARLINK-35825",
        "group": "last-30-days",
        "lat": -6.6770768269186505,
        "lon": -37.01455555616543,
        "alt_km": 415.64234504910473,
        "timestamp": "2025-12-10T05:46:12.575648+00:00",
        "meta_object_name": "STARLINK-35825",
        "meta_object_id": "2025-268L",
        "meta_epoch": "2025-12-09T20:00:01.999008",
        "meta_mean_motion": 15.50558688,
        "meta_eccentricity": 0.00019,
        "meta_inclination": 43.0005,
        "meta_ra_of_asc_node": 138.15,
        "meta_arg_of_pericenter": 276.4888,
        "meta_mean_anomaly": 158.2823,
        "meta_ephemeris_type": 0,
        "meta_classification_type": "U",
        "meta_norad_cat_id": 66567,
        "meta_element_set_no": 999,
        "meta_rev_at_epoch": 420,
        "meta_bstar": 0.00027904,
        "meta_mean_motion_dot": 0.0001605,
        "meta_mean_motion_ddot": 0,
        "tle_line1": "1 66567U 25268L   25343.83335647  .00016050  00000+0  27904-3 0  9995",
        "tle_line2": "2 66567  43.0005 138.1500 0001900 276.4888 158.2823 15.50558688  4201"
      },
      "geometry": {
        "type": "Point",
        "coordinates": [
          -37.01455555616543,
          -6.6770768269186505
        ]
      }
    },
    {
      "type": "Feature",
      "properties": {
        "norad_id": 66568,
        "name": "STARLINK-35803",
        "group": "last-30-days",
        "lat": -7.97203455697082,
        "lon": -35.59340907600226,
        "alt_km": 415.77177317951373,
        "timestamp": "2025-12-10T05:46:12.575659+00:00",
        "meta_object_name": "STARLINK-35803",
        "meta_object_id": "2025-268M",
        "meta_epoch": "2025-12-09T20:00:01.999008",
        "meta_mean_motion": 15.50585166,
        "meta_eccentricity": 0.0001821,
        "meta_inclination": 43.0004,
        "meta_ra_of_asc_node": 138.1448,
        "meta_arg_of_pericenter": 275.6132,
        "meta_mean_anomaly": 161.0663,
        "meta_ephemeris_type": 0,
        "meta_classification_type": "U",
        "meta_norad_cat_id": 66568,
        "meta_element_set_no": 999,
        "meta_rev_at_epoch": 420,
        "meta_bstar": -0.00057702,
        "meta_mean_motion_dot": -0.00034054,
        "meta_mean_motion_ddot": 0,
        "tle_line1": "1 66568U 25268M   25343.83335647 -.00034054  00000+0 -57702-3 0  9991",
        "tle_line2": "2 66568  43.0004 138.1448 0001821 275.6132 161.0663 15.50585166  4202"
      },
      "geometry": {
        "type": "Point",
        "coordinates": [
          -35.59340907600226,
          -7.97203455697082
        ]
      }
    },
    {
      "type": "Feature",
      "properties": {
        "norad_id": 66569,
        "name": "STARLINK-35835",
        "group": "last-30-days",
        "lat": -9.258356535655548,
        "lon": -34.16696559780894,
        "alt_km": 415.88126473340526,
        "timestamp": "2025-12-10T05:46:12.575671+00:00",
        "meta_object_name": "STARLINK-35835",
        "meta_object_id": "2025-268N",
        "meta_epoch": "2025-12-09T20:00:01.999008",
        "meta_mean_motion": 15.50566468,
        "meta_eccentricity": 0.0001825,
        "meta_inclination": 43.0004,
        "meta_ra_of_asc_node": 138.14,
        "meta_arg_of_pericenter": 276.3582,
        "meta_mean_anomaly": 162.2451,
        "meta_ephemeris_type": 0,
        "meta_classification_type": "U",
        "meta_norad_cat_id": 66569,
        "meta_element_set_no": 999,
        "meta_rev_at_epoch": 420,
        "meta_bstar": -0.00010844,
        "meta_mean_motion_dot": -6.695e-05,
        "meta_mean_motion_ddot": 0,
        "tle_line1": "1 66569U 25268N   25343.83335647 -.00006695  00000+0 -10844-3 0  9998",
        "tle_line2": "2 66569  43.0004 138.1400 0001825 276.3582 162.2451 15.50566468  4204"
      },
      "geometry": {
        "type": "Point",
        "coordinates": [
          -34.16696559780894,
          -9.258356535655548
        ]
      }
    },
    {
      "type": "Feature",
      "properties": {
        "norad_id": 66570,
        "name": "STARLINK-35834",
        "group": "last-30-days",
        "lat": -10.54566941151012,
        "lon": -32.72268927688389,
        "alt_km": 416.1237835464026,
        "timestamp": "2025-12-10T05:46:12.575681+00:00",
        "meta_object_name": "STARLINK-35834",
        "meta_object_id": "2025-268P",
        "meta_epoch": "2025-12-09T20:00:01.999008",
        "meta_mean_motion": 15.50612365,
        "meta_eccentricity": 0.0001594,
        "meta_inclination": 43.0007,
        "meta_ra_of_asc_node": 138.1351,
        "meta_arg_of_pericenter": 278.0843,
        "meta_mean_anomaly": 162.4299,
        "meta_ephemeris_type": 0,
        "meta_classification_type": "U",
        "meta_norad_cat_id": 66570,
        "meta_element_set_no": 999,
        "meta_rev_at_epoch": 420,
        "meta_bstar": -0.0017647,
        "meta_mean_motion_dot": -0.00102646,
        "meta_mean_motion_ddot": 0,
        "tle_line1": "1 66570U 25268P   25343.83335647 -.00102646  00000+0 -17647-2 0  9990",
        "tle_line2": "2 66570  43.0007 138.1351 0001594 278.0843 162.4299 15.50612365  4206"
      },
      "geometry": {
        "type": "Point",
        "coordinates": [
          -32.72268927688389,
          -10.54566941151012
        ]
      }
    },
    {
      "type": "Feature",
      "properties": {
        "norad_id": 66571,
        "name": "STARLINK-35836",
        "group": "last-30-days",
        "lat": -11.821744163431473,
        "lon": -31.271294628057216,
        "alt_km": 416.1119711861302,
        "timestamp": "2025-12-10T05:46:12.575690+00:00",
        "meta_object_name": "STARLINK-35836",
        "meta_object_id": "2025-268Q",
        "meta_epoch": "2025-12-09T20:00:01.999008",
        "meta_mean_motion": 15.50597129,
        "meta_eccentricity": 0.0001825,
        "meta_inclination": 43.0006,
        "meta_ra_of_asc_node": 138.1303,
        "meta_arg_of_pericenter": 276.7034,
        "meta_mean_anomaly": 165.7241,
        "meta_ephemeris_type": 0,
        "meta_classification_type": "U",
        "meta_norad_cat_id": 66571,
        "meta_element_set_no": 999,
        "meta_rev_at_epoch": 420,
        "meta_bstar": -0.00097576,
        "meta_mean_motion_dot": -0.00057207,
        "meta_mean_motion_ddot": 0,
        "tle_line1": "1 66571U 25268Q   25343.83335647 -.00057207  00000+0 -97576-3 0  9993",
        "tle_line2": "2 66571  43.0006 138.1303 0001825 276.7034 165.7241 15.50597129  4200"
      },
      "geometry": {
        "type": "Point",
        "coordinates": [
          -31.271294628057216,
          -11.821744163431473
        ]
      }
    },
    {
      "type": "Feature",
      "properties": {
        "norad_id": 66572,
        "name": "STARLINK-35870",
        "group": "last-30-days",
        "lat": -13.090130905400923,
        "lon": -29.805496165942518,
        "alt_km": 416.266921272304,
        "timestamp": "2025-12-10T05:46:12.575703+00:00",
        "meta_object_name": "STARLINK-35870",
        "meta_object_id": "2025-268R",
        "meta_epoch": "2025-12-09T20:00:01.999008",
        "meta_mean_motion": 15.50584696,
        "meta_eccentricity": 0.0001728,
        "meta_inclination": 43.0007,
        "meta_ra_of_asc_node": 138.1266,
        "meta_arg_of_pericenter": 280.5141,
        "meta_mean_anomaly": 163.8309,
        "meta_ephemeris_type": 0,
        "meta_classification_type": "U",
        "meta_norad_cat_id": 66572,
        "meta_element_set_no": 999,
        "meta_rev_at_epoch": 420,
        "meta_bstar": -0.00053116,
        "meta_mean_motion_dot": -0.00031384,
        "meta_mean_motion_ddot": 0,
        "tle_line1": "1 66572U 25268R   25343.83335647 -.00031384  00000+0 -53116-3 0  9994",
        "tle_line2": "2 66572  43.0007 138.1266 0001728 280.5141 163.8309 15.50584696  4203"
      },
      "geometry": {
        "type": "Point",
        "coordinates": [
          -29.805496165942518,
          -13.090130905400923
        ]
      }
    }
  ]
}